ORBCOMM FM20            
1 25416U 98046D   24348.47959552  .00001671  00000+0  61280-3 0  9996
2 25416  44.9950 340.2671 0001928 307.6436  52.4236 14.36440388377553
ORBCOMM FM16            
1 25417U 98046E   24348.47009159  .00002246  00000+0  78474-3 0  9998
2 25417  44.9946 334.1303 0002953  49.6793 310.4313 14.37840898377511
ORBCOMM FM15            
1 25418U 98046F   24348.40274745  .00002205  00000+0  77630-3 0  9995
2 25418  44.9978 339.0662 0002442  47.0874 313.0179 14.37521337377506
ORBCOMM FM14            
1 25419U 98046G   24348.11556491  .00002216  00000+0  77546-3 0  9993
2 25419  44.9966 339.1503 0002144  14.8364 345.2547 14.37807412377422
ORBCOMM FM13            
1 25420U 98046H   24348.49790846  .00001954  00000+0  70343-3 0  9996
2 25420  44.9983 343.6485 0003833  36.7167 323.3943 14.36783208376524
ORBCOMM FM21            
1 25475U 98053A   24348.53837659  .00001849  00000+0  67101-3 0  9994
2 25475  45.0088  68.1908 0001727 270.5019  89.5631 14.36578237370540
ORBCOMM FM22            
1 25476U 98053B   24348.69658394  .00002228  00000+0  78580-3 0  9994
2 25476  45.0082  63.6435 0002595 317.3968  42.6678 14.37393164370936
ORBCOMM FM23            
1 25477U 98053C   24349.18371737  .00002031  00000+0  73097-3 0  9993
2 25477  45.0088  67.4690 0002004 301.8298  58.2354 14.36683517371092
